[{"OBJECT_NAME":"GAOFEN-9 04","OBJECT_ID":"2020-054A","EPOCH":"2026-03-09T22:30:58.350240","MEAN_MOTION":15.3498743,"ECCENTRICITY":0.00126493,"INCLINATION":97.2525,"RA_OF_ASC_NODE":139.4278,"ARG_OF_PERICENTER":89.779,"MEAN_ANOMALY":270.4903,"EPHEMERIS_TYPE":0,"CLASSIFICATION_TYPE":"U","NORAD_CAT_ID":46025,"ELEMENT_SET_NO":999,"REV_AT_EPOCH":31112,"BSTAR":0.00016488112,"MEAN_MOTION_DOT":5.53e-5,"MEAN_MOTION_DDOT":0},{"OBJECT_NAME":"SPACEMOBILE-003 DEB","OBJECT_ID":"2024-163H","EPOCH":"2026-03-09T06:41:58.685280","MEAN_MOTION":15.36819258,"ECCENTRICITY":0.00083408,"INCLINATION":52.9732,"RA_OF_ASC_NODE":23.5908,"ARG_OF_PERICENTER":178.9597,"MEAN_ANOMALY":181.1423,"EPHEMERIS_TYPE":0,"CLASSIFICATION_TYPE":"U","NORAD_CAT_ID":62371,"ELEMENT_SET_NO":999,"REV_AT_EPOCH":7650,"BSTAR":0.00066898372,"MEAN_MOTION_DOT":0.00024141,"MEAN_MOTION_DDOT":0}]
